[{"OBJECT_NAME":"JAY-D2","OBJECT_ID":"2025-009BJ","EPOCH":"2026-03-09T21:48:00.655488","MEAN_MOTION":15.2162627,"ECCENTRICITY":0.00031453,"INCLINATION":97.3937,"RA_OF_ASC_NODE":149.1133,"ARG_OF_PERICENTER":342.3375,"MEAN_ANOMALY":17.7751,"EPHEMERIS_TYPE":0,"CLASSIFICATION_TYPE":"U","NORAD_CAT_ID":62665,"ELEMENT_SET_NO":999,"REV_AT_EPOCH":6363,"BSTAR":0.00024274507,"MEAN_MOTION_DOT":5.414e-5,"MEAN_MOTION_DDOT":0},{"OBJECT_NAME":"COSMOS 1536","OBJECT_ID":"1984-013A","EPOCH":"2026-03-09T12:33:00.332064","MEAN_MOTION":15.23821576,"ECCENTRICITY":0.00124739,"INCLINATION":82.5428,"RA_OF_ASC_NODE":108.0163,"ARG_OF_PERICENTER":284.1309,"MEAN_ANOMALY":75.8542,"EPHEMERIS_TYPE":0,"CLASSIFICATION_TYPE":"U","NORAD_CAT_ID":14699,"ELEMENT_SET_NO":999,"REV_AT_EPOCH":27259,"BSTAR":0.00029910457,"MEAN_MOTION_DOT":7.251e-5,"MEAN_MOTION_DDOT":0}]
